[{"OBJECT_NAME":"STARLINK-1624","OBJECT_ID":"2020-057P","EPOCH":"2026-03-10T00:00:02.999808","MEAN_MOTION":15.68159276,"ECCENTRICITY":0.00046049,"INCLINATION":53.0462,"RA_OF_ASC_NODE":230.801,"ARG_OF_PERICENTER":319.1645,"MEAN_ANOMALY":185.2819,"EPHEMERIS_TYPE":0,"CLASSIFICATION_TYPE":"U","NORAD_CAT_ID":46130,"ELEMENT_SET_NO":999,"REV_AT_EPOCH":580,"BSTAR":0.0011533861,"MEAN_MOTION_DOT":0.00132696,"MEAN_MOTION_DDOT":0},{"OBJECT_NAME":"STARLINK-11181 [DTC]","OBJECT_ID":"2024-113A","EPOCH":"2026-03-09T12:36:49.520160","MEAN_MOTION":15.69710411,"ECCENTRICITY":0.00012435,"INCLINATION":53.1594,"RA_OF_ASC_NODE":192.15,"ARG_OF_PERICENTER":98.7495,"MEAN_ANOMALY":261.3664,"EPHEMERIS_TYPE":0,"CLASSIFICATION_TYPE":"U","NORAD_CAT_ID":60059,"ELEMENT_SET_NO":999,"REV_AT_EPOCH":9953,"BSTAR":4.184779e-6,"MEAN_MOTION_DOT":-8.2e-7,"MEAN_MOTION_DDOT":0}]
